[{"OBJECT_NAME":"STARLINK-2457","OBJECT_ID":"2021-036AX","EPOCH":"2026-03-10T00:00:02.999808","MEAN_MOTION":15.25879692,"ECCENTRICITY":0.00013824,"INCLINATION":53.1406,"RA_OF_ASC_NODE":99.5295,"ARG_OF_PERICENTER":89.9573,"MEAN_ANOMALY":44.5449,"EPHEMERIS_TYPE":0,"CLASSIFICATION_TYPE":"U","NORAD_CAT_ID":48321,"ELEMENT_SET_NO":999,"REV_AT_EPOCH":574,"BSTAR":0.064901047,"MEAN_MOTION_DOT":0.01853287,"MEAN_MOTION_DDOT":0},{"OBJECT_NAME":"239ALFEROV (RS61S)","OBJECT_ID":"2025-155F","EPOCH":"2026-03-09T21:46:33.382848","MEAN_MOTION":15.29933217,"ECCENTRICITY":0.00084878,"INCLINATION":97.4469,"RA_OF_ASC_NODE":37.6373,"ARG_OF_PERICENTER":151.5904,"MEAN_ANOMALY":208.58,"EPHEMERIS_TYPE":0,"CLASSIFICATION_TYPE":"U","NORAD_CAT_ID":64881,"ELEMENT_SET_NO":999,"REV_AT_EPOCH":6561,"BSTAR":0.00067233359,"MEAN_MOTION_DOT":0.00019457,"MEAN_MOTION_DDOT":0}]
